NORAD_CAT_ID,OBJECT_NAME,OBJECT_TYPE,EPOCH,MEAN_MOTION,ECCENTRICITY,INCLINATION,RA_OF_ASC_NODE,ARG_OF_PERICENTER,MEAN_ANOMALY,BSTAR,MEAN_MOTION_DOT,MEAN_MOTION_DDOT,TLE_LINE0,TLE_LINE1,TLE_LINE2,SEMIMAJOR_AXIS,PERIOD,APOGEE,PERIGEE,DECAYED
53609.0,STARLINK-4660,PAYLOAD,2024-05-30 18:11:26,15.08843325,0.0001078,53.2171,267.4997,87.5768,272.5347,0.00014959,2.094e-05,0.0,0 STARLINK-4660,1 53609U 22104X   24151.75795050  .00002094  00000-0  14959-3 0  9999,2 53609  53.2171 267.4997 0001078  87.5768 272.5347 15.08843325 97189,6917.87,95.437,540.481,538.989,0.0
53609.0,STARLINK-4660,PAYLOAD,2024-05-31 13:16:05,15.08838791,0.0001314,53.2176,263.9306,109.0957,251.0177,6.6387e-05,7.69e-06,0.0,0 STARLINK-4660,1 53609U 22104X   24152.55283595  .00000769  00000-0  66387-4 0  9994,2 53609  53.2176 263.9306 0001314 109.0957 251.0177 15.08838791 97300,6917.884,95.438,540.658,538.84,0.0
53609.0,STARLINK-4660,PAYLOAD,2024-05-31 16:26:51,15.08841375,0.0001259,53.2177,263.3368,77.2137,282.8995,8.4198e-05,1.052e-05,0.0,0 STARLINK-4660,1 53609U 22104X   24152.68531545  .00001052  00000-0  84198-4 0  9995,2 53609  53.2177 263.3368 0001259  77.2137 282.8995 15.08841375 98018,6917.876,95.437,540.612,538.87,0.0
53609.0,STARLINK-4660,PAYLOAD,2024-06-01 00:23:46,15.08852247,0.0001172,53.2173,261.8493,76.954,283.1583,0.00013729,1.899e-05,0.0,0 STARLINK-4660,1 53609U 22104X   24153.01650526  .00001899  00000-0  13729-3 0  9994,2 53609  53.2173 261.8493 0001172  76.9540 283.1583 15.08852247 97379,6917.843,95.437,540.519,538.897,0.0
53609.0,STARLINK-4660,PAYLOAD,2024-06-01 13:06:52,15.08832888,0.0001379,53.2166,259.4728,87.7383,272.3768,-4.6774e-05,-1.032e-05,0.0,0 STARLINK-4660,1 53609U 22104X   24153.54644429 -.00001032  00000-0 -46774-4 0  9995,2 53609  53.2166 259.4728 0001379  87.7383 272.3768 15.08832888 97452,6917.902,95.438,540.721,538.813,0.0
53609.0,STARLINK-4660,PAYLOAD,2024-06-01 14:42:15,15.08834284,0.0001281,53.2165,259.1754,87.2799,272.834,-5.1785e-05,-1.112e-05,0.0,0 STARLINK-4660,1 53609U 22104X   24153.61268321 -.00001112  00000-0 -51785-4 0  9993,2 53609  53.2165 259.1754 0001281  87.2799 272.8340 15.08834284 98156,6917.898,95.438,540.649,538.877,0.0
53609.0,STARLINK-4660,PAYLOAD,2024-06-02 00:14:34,15.08842664,0.000145,53.2168,257.3917,87.9791,272.1367,2.0083e-05,3.2e-07,0.0,0 STARLINK-4660,1 53609U 22104X   24154.01011668  .00000032  00000-0  20083-4 0  9993,2 53609  53.2168 257.3917 0001450  87.9791 272.1367 15.08842664 97520,6917.872,95.437,540.74,538.734,0.0
53609.0,STARLINK-4660,PAYLOAD,2024-06-02 12:57:39,15.08837992,0.0001068,53.2169,255.0089,102.3095,257.8017,3.4998e-05,2.69e-06,0.0,0 STARLINK-4660,1 53609U 22104X   24154.54004040  .00000269  00000-0  34998-4 0  9999,2 53609  53.2169 255.0089 0001068 102.3095 257.8017 15.08837992 98295,6917.887,95.438,540.49,539.013,0.0
53609.0,STARLINK-4660,PAYLOAD,2024-06-03 00:05:20,15.08848426,0.0001203,53.2148,252.9285,108.7556,251.3567,0.0001192,1.61e-05,0.0,0 STARLINK-4660,1 53609U 22104X   24155.00371022  .00001610  00000-0  11920-3 0  9998,2 53609  53.2148 252.9285 0001203 108.7556 251.3567 15.08848426 97673,6917.855,95.437,540.552,538.887,0.0
53609.0,STARLINK-4660,PAYLOAD,2024-06-03 12:48:26,15.08834089,0.0001339,53.2165,250.5501,94.4068,265.7077,0.00022314,3.265e-05,0.0,0 STARLINK-4660,1 53609U 22104X   24155.53363910  .00003265  00000-0  22314-3 0  9990,2 53609  53.2165 250.5501 0001339  94.4068 265.7077 15.08834089 97750,6917.898,95.438,540.69,538.837,0.0
53609.0,STARLINK-4660,PAYLOAD,2024-06-03 23:56:07,15.08848181,0.0001496,53.2165,248.4675,98.6452,261.4709,0.00012245,1.662e-05,0.0,0 STARLINK-4660,1 53609U 22104X   24155.99731056  .00001662  00000-0  12245-3 0  9991,2 53609  53.2165 248.4675 0001496  98.6452 261.4709 15.08848181 97826,6917.855,95.437,540.755,538.685,0.0
53609.0,STARLINK-4660,PAYLOAD,2024-06-04 12:39:13,15.08836599,0.0001217,53.2174,246.0908,95.1125,265.0006,0.00012721,1.737e-05,0.0,0 STARLINK-4660,1 53609U 22104X   24156.52723896  .00001737  00000-0  12721-3 0  9996,2 53609  53.2174 246.0908 0001217  95.1125 265.0006 15.08836599 97908,6917.891,95.438,540.598,538.914,0.0
53609.0,STARLINK-4660,PAYLOAD,2024-06-04 15:49:59,15.08845901,0.0001415,53.2158,245.4937,97.569,262.5463,3.5673e-05,2.8e-06,0.0,0 STARLINK-4660,1 53609U 22104X   24156.65971380  .00000280  00000-0  35673-4 0  9997,2 53609  53.2158 245.4937 0001415  97.5690 262.5463 15.08845901 97926,6917.862,95.437,540.706,538.748,0.0
53609.0,STARLINK-4660,PAYLOAD,2024-06-05 12:30:01,15.08827274,0.0001152,53.2162,241.6267,95.7003,264.412,9.4895e-07,-2.73e-06,0.0,0 STARLINK-4660,1 53609U 22104X   24157.52084737 -.00000273  00000-0  94895-6 0  9991,2 53609  53.2162 241.6267 0001152  95.7003 264.4120 15.08827274 98050,6917.919,95.438,540.581,538.987,0.0
53609.0,STARLINK-4660,PAYLOAD,2024-06-05 22:02:19,15.08839625,0.0001223,53.2177,239.8475,91.7959,268.3173,-3.1161e-05,-7.84e-06,0.0,0 STARLINK-4660,1 53609U 22104X   24157.91828180 -.00000784  00000-0 -31161-4 0  9995,2 53609  53.2177 239.8475 0001223  91.7959 268.3173 15.08839625 98808,6917.882,95.438,540.593,538.9,0.0
53609.0,STARLINK-4660,PAYLOAD,2024-06-06 12:20:47,15.08842578,0.0001239,53.2179,237.171,91.6257,268.4877,0.00012897,1.765e-05,0.0,0 STARLINK-4660,1 53609U 22104X   24158.51443717  .00001765  00000-0  12897-3 0  9993,2 53609  53.2179 237.1710 0001239  91.6257 268.4877 15.08842578 98892,6917.873,95.437,540.595,538.88,0.0
53609.0,STARLINK-4660,PAYLOAD,2024-06-07 09:00:48,15.08831269,0.0001265,53.216,233.3009,92.2027,267.911,0.00016025,2.263e-05,0.0,0 STARLINK-4660,1 53609U 22104X   24159.37556529  .00002263  00000-0  16025-3 0  9995,2 53609  53.2160 233.3009 0001265  92.2027 267.9110 15.08831269 98330,6917.907,95.438,540.647,538.897,0.0
53609.0,STARLINK-4660,PAYLOAD,2024-06-07 21:43:53,15.08840675,0.0001149,53.2154,230.9229,81.4457,278.6665,0.00019218,2.772e-05,0.0,0 STARLINK-4660,1 53609U 22104X   24159.90548013  .00002772  00000-0  19218-3 0  9995,2 53609  53.2154 230.9229 0001149  81.4457 278.6665 15.08840675 99109,6917.878,95.438,540.538,538.948,0.0
53609.0,STARLINK-4660,PAYLOAD,2024-06-08 13:37:44,15.08857345,0.0001716,53.2175,227.9524,110.0377,250.08,1.8404e-05,5e-08,0.0,0 STARLINK-4660,1 53609U 22104X   24160.56787286  .00000005  00000-0  18404-4 0  9990,2 53609  53.2175 227.9524 0001716 110.0377 250.0800 15.08857345 99204,6917.827,95.436,540.879,538.505,0.0
53609.0,STARLINK-4660,PAYLOAD,2024-06-08 21:34:39,15.08856481,0.0001558,53.2174,226.4661,83.9179,276.199,9.2586e-05,1.186e-05,0.0,0 STARLINK-4660,1 53609U 22104X   24160.89907009  .00001186  00000-0  92586-4 0  9997,2 53609  53.2174 226.4661 0001558  83.9179 276.1990 15.08856481 99255,6917.83,95.437,540.773,538.617,0.0
53609.0,STARLINK-4660,PAYLOAD,2024-06-09 11:53:10,15.08826453,0.0001411,53.2157,223.7863,94.0083,266.1071,2.0708e-05,4.2e-07,0.0,0 STARLINK-4660,1 53609U 22104X   24161.49525572  .00000042  00000-0  20708-4 0  9992,2 53609  53.2157 223.7863 0001411  94.0083 266.1071 15.08826453 98653,6917.922,95.438,540.763,538.811,0.0
53609.0,STARLINK-4660,PAYLOAD,2024-06-09 21:25:28,15.08837854,0.0001513,53.216,222.0039,89.8176,270.299,2.2197e-05,6.5e-07,0.0,0 STARLINK-4660,1 53609U 22104X   24161.89268548  .00000065  00000-0  22197-4 0  9992,2 53609  53.2160 222.0039 0001513  89.8176 270.2990 15.08837854 99409,6917.887,95.438,540.799,538.705,0.0
53609.0,STARLINK-4660,PAYLOAD,2024-06-10 03:47:00,15.08838585,0.0001573,53.2156,220.8141,90.6156,269.5016,7.0228e-05,8.3e-06,0.0,0 STARLINK-4660,1 53609U 22104X   24162.15764619  .00000830  00000-0  70228-4 0  9990,2 53609  53.2156 220.8141 0001573  90.6156 269.5016 15.08838585 98757,6917.885,95.438,540.838,538.662,0.0
53609.0,STARLINK-4660,PAYLOAD,2024-06-10 10:08:32,15.0884515,0.0001466,53.2145,219.6252,95.1317,264.9843,0.00021553,3.144e-05,0.0,0 STARLINK-4660,1 53609U 22104X   24162.42260366  .00003144  00000-0  21553-3 0  9997,2 53609  53.2145 219.6252 0001466  95.1317 264.9843 15.08845150 99488,6917.865,95.437,540.744,538.715,0.0
53609.0,STARLINK-4660,PAYLOAD,2024-06-10 21:16:14,15.0885452,0.0001463,53.2147,217.5432,95.7457,264.3702,0.00046606,7.14e-05,0.0,0 STARLINK-4660,1 53609U 22104X   24162.88628080  .00007140  00000-0  46606-3 0  9994,2 53609  53.2147 217.5432 0001463  95.7457 264.3702 15.08854520 98865,6917.836,95.437,540.713,538.689,0.0
53609.0,STARLINK-4660,PAYLOAD,2024-06-11 03:37:47,15.08844484,0.0001546,53.2142,216.3544,88.4651,271.6518,0.00037855,5.742e-05,0.0,0 STARLINK-4660,1 53609U 22104X   24163.15124565  .00005742  00000-0  37855-3 0  9996,2 53609  53.2142 216.3544 0001546  88.4651 271.6518 15.08844484 98907,6917.867,95.437,540.801,538.662,0.0
53609.0,STARLINK-4660,PAYLOAD,2024-06-11 09:59:19,15.08849205,0.0001382,53.214,215.1647,86.1537,273.9613,0.00040013,6.087e-05,0.0,0 STARLINK-4660,1 53609U 22104X   24163.41620202  .00006087  00000-0  40013-3 0  9997,2 53609  53.2140 215.1647 0001382  86.1537 273.9613 15.08849205 99630,6917.852,95.437,540.673,538.761,0.0
53609.0,STARLINK-4660,PAYLOAD,2024-06-12 06:39:21,15.0884096,0.0001602,53.2141,211.2988,87.8778,272.2397,0.00039333,5.978e-05,0.0,0 STARLINK-4660,1 53609U 22104X   24164.27732721  .00005978  00000-0  39333-3 0  9993,2 53609  53.2141 211.2988 0001602  87.8778 272.2397 15.08840960 99760,6917.877,95.437,540.851,538.634,0.0
53609.0,STARLINK-4660,PAYLOAD,2024-06-12 09:50:07,15.08835535,0.0001457,53.2154,210.7038,89.9558,270.1601,4.1487e-06,-2.22e-06,0.0,0 STARLINK-4660,1 53609U 22104X   24164.40980787 -.00000222  00000-0  41487-5 0  9998,2 53609  53.2154 210.7038 0001457  89.9558 270.1601 15.08835535 99094,6917.894,95.438,540.767,538.751,0.0
53609.0,STARLINK-4660,PAYLOAD,2024-06-13 09:40:54,15.08841191,0.0001341,53.2156,206.2437,89.0331,271.0814,0.00017418,2.485e-05,0.0,0 STARLINK-4660,1 53609U 22104X   24165.40340862  .00002485  00000-0  17418-3 0  9990,2 53609  53.2156 206.2437 0001341  89.0331 271.0814 15.08841191 99935,6917.877,95.437,540.669,538.814,0.0
